{
  "type": "FeatureCollection",
  "features": [
    {
      "type": "Feature",
      "properties": {
        "norad_id": 39773,
        "name": "EUTELSAT 3B",
        "group": "eutelsat",
        "lat": -0.04003448939692958,
        "lon": -32.80226926398447,
        "alt_km": 35787.68266124592,
        "timestamp": "2025-12-17T15:50:09.448409+00:00",
        "meta_object_name": "EUTELSAT 3B",
        "meta_object_id": "2014-030A",
        "meta_epoch": "2025-12-17T04:46:49.192608",
        "meta_mean_motion": 1.00271929,
        "meta_eccentricity": 0.00042601,
        "meta_inclination": 0.0604,
        "meta_ra_of_asc_node": 358.9684,
        "meta_arg_of_pericenter": 232.645,
        "meta_mean_anomaly": 289.259,
        "meta_ephemeris_type": 0,
        "meta_classification_type": "U",
        "meta_norad_cat_id": 39773,
        "meta_element_set_no": 999,
        "meta_rev_at_epoch": 4224,
        "meta_bstar": 0,
        "meta_mean_motion_dot": 4.4e-07,
        "meta_mean_motion_ddot": 0,
        "tle_line1": "1 39773U 14030A   25351.19918047  .00000044  00000+0  00000+0 0  9998",
        "tle_line2": "2 39773   0.0604 358.9684 0004260 232.6450 289.2590  1.00271929 42246"
      },
      "geometry": {
        "type": "Point",
        "coordinates": [
          -32.80226926398447,
          -0.04003448939692958
        ]
      }
    },
    {
      "type": "Feature",
      "properties": {
        "norad_id": 40425,
        "name": "EUTELSAT 115 WEST B",
        "group": "eutelsat",
        "lat": 0.009707263977704052,
        "lon": -150.8474503913747,
        "alt_km": 35786.036232070364,
        "timestamp": "2025-12-17T15:50:09.448421+00:00",
        "meta_object_name": "EUTELSAT 115 WEST B",
        "meta_object_id": "2015-010B",
        "meta_epoch": "2025-12-16T10:53:20.776416",
        "meta_mean_motion": 1.00270606,
        "meta_eccentricity": 1.284e-05,
        "meta_inclination": 0.012,
        "meta_ra_of_asc_node": 152.6665,
        "meta_arg_of_pericenter": 108.4071,
        "meta_mean_anomaly": 232.705,
        "meta_ephemeris_type": 0,
        "meta_classification_type": "U",
        "meta_norad_cat_id": 40425,
        "meta_element_set_no": 999,
        "meta_rev_at_epoch": 3956,
        "meta_bstar": 0,
        "meta_mean_motion_dot": -1e-08,
        "meta_mean_motion_ddot": 0,
        "tle_line1": "1 40425U 15010B   25350.45371269 -.00000001  00000+0  00000+0 0  9994",
        "tle_line2": "2 40425   0.0120 152.6665 0000128 108.4071 232.7050  1.00270606 39567"
      },
      "geometry": {
        "type": "Point",
        "coordinates": [
          -150.8474503913747,
          0.009707263977704052
        ]
      }
    },
    {
      "type": "Feature",
      "properties": {
        "norad_id": 40875,
        "name": "EUTELSAT 8 WEST B",
        "group": "eutelsat",
        "lat": -0.04788870287058255,
        "lon": -43.888058253040505,
        "alt_km": 35774.0646766426,
        "timestamp": "2025-12-17T15:50:09.448433+00:00",
        "meta_object_name": "EUTELSAT 8 WEST B",
        "meta_object_id": "2015-039B",
        "meta_epoch": "2025-12-17T03:00:51.840000",
        "meta_mean_motion": 1.00271883,
        "meta_eccentricity": 0.00043183,
        "meta_inclination": 0.064,
        "meta_ra_of_asc_node": 350.0771,
        "meta_arg_of_pericenter": 277.0116,
        "meta_mean_anomaly": 216.1477,
        "meta_ephemeris_type": 0,
        "meta_classification_type": "U",
        "meta_norad_cat_id": 40875,
        "meta_element_set_no": 999,
        "meta_rev_at_epoch": 3783,
        "meta_bstar": 0,
        "meta_mean_motion_dot": -4.1e-07,
        "meta_mean_motion_ddot": 0,
        "tle_line1": "1 40875U 15039B   25351.12560000 -.00000041  00000+0  00000+0 0  9996",
        "tle_line2": "2 40875   0.0640 350.0771 0004318 277.0116 216.1477  1.00271883 37838"
      },
      "geometry": {
        "type": "Point",
        "coordinates": [
          -43.888058253040505,
          -0.04788870287058255
        ]
      }
    },
    {
      "type": "Feature",
      "properties": {
        "norad_id": 41310,
        "name": "EUTELSAT 9B",
        "group": "eutelsat",
        "lat": -0.05543912794254649,
        "lon": -26.905902195045126,
        "alt_km": 35776.520570269924,
        "timestamp": "2025-12-17T15:50:09.448446+00:00",
        "meta_object_name": "EUTELSAT 9B",
        "meta_object_id": "2016-005A",
        "meta_epoch": "2025-12-16T23:40:20.750592",
        "meta_mean_motion": 1.00271677,
        "meta_eccentricity": 0.00044885,
        "meta_inclination": 0.0551,
        "meta_ra_of_asc_node": 69.3446,
        "meta_arg_of_pericenter": 203.9712,
        "meta_mean_anomaly": 176.6287,
        "meta_ephemeris_type": 0,
        "meta_classification_type": "U",
        "meta_norad_cat_id": 41310,
        "meta_element_set_no": 999,
        "meta_rev_at_epoch": 3629,
        "meta_bstar": 0,
        "meta_mean_motion_dot": 8.6e-07,
        "meta_mean_motion_ddot": 0,
        "tle_line1": "1 41310U 16005A   25350.98635128  .00000086  00000+0  00000+0 0  9990",
        "tle_line2": "2 41310   0.0551  69.3446 0004488 203.9712 176.6287  1.00271677 36290"
      },
      "geometry": {
        "type": "Point",
        "coordinates": [
          -26.905902195045126,
          -0.05543912794254649
        ]
      }
    },
    {
      "type": "Feature",
      "properties": {
        "norad_id": 41382,
        "name": "EUTELSAT 65 WEST A",
        "group": "eutelsat",
        "lat": -0.07685838426955033,
        "lon": -101.15900413728691,
        "alt_km": 35777.142694624046,
        "timestamp": "2025-12-17T15:50:09.448458+00:00",
        "meta_object_name": "EUTELSAT 65 WEST A",
        "meta_object_id": "2016-014A",
        "meta_epoch": "2025-12-17T04:27:21.056832",
        "meta_mean_motion": 1.00270306,
        "meta_eccentricity": 0.00023237,
        "meta_inclination": 0.0573,
        "meta_ra_of_asc_node": 324.7434,
        "meta_arg_of_pericenter": 311.0741,
        "meta_mean_anomaly": 171.8771,
        "meta_ephemeris_type": 0,
        "meta_classification_type": "U",
        "meta_norad_cat_id": 41382,
        "meta_element_set_no": 999,
        "meta_rev_at_epoch": 3571,
        "meta_bstar": 0,
        "meta_mean_motion_dot": -2.52e-06,
        "meta_mean_motion_ddot": 0,
        "tle_line1": "1 41382U 16014A   25351.18566038 -.00000252  00000+0  00000+0 0  9991",
        "tle_line2": "2 41382   0.0573 324.7434 0002323 311.0741 171.8771  1.00270306 35716"
      },
      "geometry": {
        "type": "Point",
        "coordinates": [
          -101.15900413728691,
          -0.07685838426955033
        ]
      }
    },
    {
      "type": "Feature",
      "properties": {
        "norad_id": 41589,
        "name": "EUTELSAT 117 WEST B",
        "group": "eutelsat",
        "lat": -0.013369354160348602,
        "lon": -152.9362424309245,
        "alt_km": 35785.73384242607,
        "timestamp": "2025-12-17T15:50:09.448470+00:00",
        "meta_object_name": "EUTELSAT 117 WEST B",
        "meta_object_id": "2016-038B",
        "meta_epoch": "2025-12-16T07:41:38.671008",
        "meta_mean_motion": 1.00271538,
        "meta_eccentricity": 1.358e-05,
        "meta_inclination": 0.0424,
        "meta_ra_of_asc_node": 167.2106,
        "meta_arg_of_pericenter": 90.3228,
        "meta_mean_anomaly": 186.0956,
        "meta_ephemeris_type": 0,
        "meta_classification_type": "U",
        "meta_norad_cat_id": 41589,
        "meta_element_set_no": 999,
        "meta_rev_at_epoch": 3482,
        "meta_bstar": 0,
        "meta_mean_motion_dot": 1.2e-07,
        "meta_mean_motion_ddot": 0,
        "tle_line1": "1 41589U 16038B   25350.32058647  .00000012  00000+0  00000+0 0  9996",
        "tle_line2": "2 41589   0.0424 167.2106 0000135  90.3228 186.0956  1.00271538 34824"
      },
      "geometry": {
        "type": "Point",
        "coordinates": [
          -152.9362424309245,
          -0.013369354160348602
        ]
      }
    },
    {
      "type": "Feature",
      "properties": {
        "norad_id": 42741,
        "name": "EUTELSAT 172B",
        "group": "eutelsat",
        "lat": 0.019745954752959333,
        "lon": 136.0540348574024,
        "alt_km": 35785.38291720488,
        "timestamp": "2025-12-17T15:50:09.448483+00:00",
        "meta_object_name": "EUTELSAT 172B",
        "meta_object_id": "2017-029B",
        "meta_epoch": "2025-12-17T03:52:16.917024",
        "meta_mean_motion": 1.0027216,
        "meta_eccentricity": 1.847e-05,
        "meta_inclination": 0.0474,
        "meta_ra_of_asc_node": 152.6379,
        "meta_arg_of_pericenter": 300.6567,
        "meta_mean_anomaly": 222.8089,
        "meta_ephemeris_type": 0,
        "meta_classification_type": "U",
        "meta_norad_cat_id": 42741,
        "meta_element_set_no": 999,
        "meta_rev_at_epoch": 3190,
        "meta_bstar": 0,
        "meta_mean_motion_dot": 1.9e-07,
        "meta_mean_motion_ddot": 0,
        "tle_line1": "1 42741U 17029B   25351.16130691  .00000019  00000+0  00000+0 0  9998",
        "tle_line2": "2 42741   0.0474 152.6379 0000184 300.6567 222.8089  1.00272160 31901"
      },
      "geometry": {
        "type": "Point",
        "coordinates": [
          136.0540348574024,
          0.019745954752959333
        ]
      }
    }
  ]
}